[{"OBJECT_NAME":"RISAT-2B","OBJECT_ID":"2019-028A","EPOCH":"2026-03-09T20:41:11.920992","MEAN_MOTION":15.01650685,"ECCENTRICITY":0.00079997,"INCLINATION":36.9961,"RA_OF_ASC_NODE":222.9871,"ARG_OF_PERICENTER":294.4328,"MEAN_ANOMALY":65.558,"EPHEMERIS_TYPE":0,"CLASSIFICATION_TYPE":"U","NORAD_CAT_ID":44233,"ELEMENT_SET_NO":999,"REV_AT_EPOCH":37289,"BSTAR":0.00037049954,"MEAN_MOTION_DOT":4.829e-5,"MEAN_MOTION_DDOT":0},{"OBJECT_NAME":"STARLINK-6167","OBJECT_ID":"2023-090AB","EPOCH":"2026-03-09T00:08:57.880608","MEAN_MOTION":15.02537899,"ECCENTRICITY":0.00013427,"INCLINATION":43.003,"RA_OF_ASC_NODE":278.0965,"ARG_OF_PERICENTER":263.0835,"MEAN_ANOMALY":96.9855,"EPHEMERIS_TYPE":0,"CLASSIFICATION_TYPE":"U","NORAD_CAT_ID":57126,"ELEMENT_SET_NO":999,"REV_AT_EPOCH":15031,"BSTAR":5.7350411e-5,"MEAN_MOTION_DOT":5.71e-6,"MEAN_MOTION_DDOT":0}]
